SL-3 R/B                
1 13403U 82079B   25338.60249320  .00012497  00000+0  51798-3 0  9999
2 13403  81.1460 305.2516 0026871 125.0456 235.3303 15.23442914363211
SL-14 R/B               
1 13553U 82092B   25338.66321625  .00000965  00000+0  10603-3 0  9992
2 13553  82.5686 230.2644 0018862 255.8499 126.5550 14.86543104314819
SL-3 R/B                
1 13819U 83010B   25338.47289644  .00028077  00000+0  62898-3 0  9998
2 13819  81.1028 118.7066 0017566  19.7145 340.4773 15.43125700343247
SL-3 R/B                
1 14208U 83075B   25338.57890913  .00020006  00000+0  57003-3 0  9996
2 14208  97.6095 334.7901 0021816 205.2081 154.8099 15.35886509315540
COSMOS 1536             
1 14699U 84013A   25338.65635619  .00010275  00000+0  44259-3 0  9998
2 14699  82.5456 202.1794 0013171 257.3681 102.6083 15.22381009258153
SL-14 R/B               
1 14820U 84027B   25338.47443020  .00001014  00000+0  11347-3 0  9995
2 14820  82.5408 334.3082 0016492 290.8442  69.1008 14.85860893233495
SL-8 R/B                
1 15483U 85006B   25338.61786002  .00000547  00000+0  19024-3 0  9995
2 15483  74.0465  76.0771 0018337  10.3105  90.5858 14.37713960140369
SL-12 R/B(2)            
1 15772U 85042D   25338.60747487  .00000186  00000+0  10512-3 0  9991
2 15772  71.1082 288.6000 0037687 273.3821 259.5244 14.21947964100878
SL-14 R/B               
1 15945U 85069B   25338.62281565  .00001125  00000+0  12463-3 0  9995
2 15945  82.5260 114.3334 0019647 143.9015 216.3533 14.86309161158712
SL-16 R/B               
1 16182U 85097B   25338.45619315 -.00000112  00000+0 -31923-4 0  9999
2 16182  71.0032 341.0432 0006173  23.9176  83.5223 14.16581780 73740
SL-14 R/B               
1 16496U 86006B   25338.48848979  .00001308  00000+0  13714-3 0  9994
2 16496  82.5266 349.3158 0075563 227.5082 131.9735 14.86655323135069
COSMOS 1743             
1 16719U 86034A   25338.59413248  .00047800  00000+0  80404-3 0  9999
2 16719  82.5342 173.0483 0004855 289.1867  70.8859 15.51524764165479
