CCSDS_OMM_VERS = 2.0
CREATION_DATE  = 
ORIGINATOR     = 

OBJECT_NAME    = SL-3 R/B
OBJECT_ID      = 1982-079B
CENTER_NAME    = EARTH
REF_FRAME      = TEME
TIME_SYSTEM    = UTC
MEAN_ELEMENT_THEORY = SGP/SGP4

EPOCH          = 2025-12-04T14:27:35.412480
MEAN_MOTION    = 15.23442914
ECCENTRICITY   = .00268714
INCLINATION    = 81.1460
RA_OF_ASC_NODE = 305.2516
ARG_OF_PERICENTER = 125.0456
MEAN_ANOMALY   = 235.3303

EPHEMERIS_TYPE = 0
CLASSIFICATION_TYPE = U
NORAD_CAT_ID   = 13403
ELEMENT_SET_NO = 999
REV_AT_EPOCH   = 36321
BSTAR          = .51798359E-3
MEAN_MOTION_DOT = .12497E-3
MEAN_MOTION_DDOT = 0

CCSDS_OMM_VERS = 2.0
CREATION_DATE  = 
ORIGINATOR     = 

OBJECT_NAME    = SL-14 R/B
OBJECT_ID      = 1982-092B
CENTER_NAME    = EARTH
REF_FRAME      = TEME
TIME_SYSTEM    = UTC
MEAN_ELEMENT_THEORY = SGP/SGP4

EPOCH          = 2025-12-04T15:55:01.884000
MEAN_MOTION    = 14.86543104
ECCENTRICITY   = .00188627
INCLINATION    = 82.5686
RA_OF_ASC_NODE = 230.2644
ARG_OF_PERICENTER = 255.8499
MEAN_ANOMALY   = 126.5550

EPHEMERIS_TYPE = 0
CLASSIFICATION_TYPE = U
NORAD_CAT_ID   = 13553
ELEMENT_SET_NO = 999
REV_AT_EPOCH   = 31481
BSTAR          = .10602569E-3
MEAN_MOTION_DOT = .965E-5
MEAN_MOTION_DDOT = 0

CCSDS_OMM_VERS = 2.0
CREATION_DATE  = 
ORIGINATOR     = 

OBJECT_NAME    = SL-3 R/B
OBJECT_ID      = 1983-010B
CENTER_NAME    = EARTH
REF_FRAME      = TEME
TIME_SYSTEM    = UTC
MEAN_ELEMENT_THEORY = SGP/SGP4

EPOCH          = 2025-12-04T11:20:58.252416
MEAN_MOTION    = 15.43125700
ECCENTRICITY   = .00175665
INCLINATION    = 81.1028
RA_OF_ASC_NODE = 118.7066
ARG_OF_PERICENTER = 19.7145
MEAN_ANOMALY   = 340.4773

EPHEMERIS_TYPE = 0
CLASSIFICATION_TYPE = U
NORAD_CAT_ID   = 13819
ELEMENT_SET_NO = 999
REV_AT_EPOCH   = 34324
BSTAR          = .62898293E-3
MEAN_MOTION_DOT = .28077E-3
MEAN_MOTION_DDOT = 0

CCSDS_OMM_VERS = 2.0
CREATION_DATE  = 
ORIGINATOR     = 

OBJECT_NAME    = SL-3 R/B
OBJECT_ID      = 1983-075B
CENTER_NAME    = EARTH
REF_FRAME      = TEME
TIME_SYSTEM    = UTC
MEAN_ELEMENT_THEORY = SGP/SGP4

EPOCH          = 2025-12-04T13:53:37.748832
MEAN_MOTION    = 15.35886509
ECCENTRICITY   = .00218167
INCLINATION    = 97.6095
RA_OF_ASC_NODE = 334.7901
ARG_OF_PERICENTER = 205.2081
MEAN_ANOMALY   = 154.8099

EPHEMERIS_TYPE = 0
CLASSIFICATION_TYPE = U
NORAD_CAT_ID   = 14208
ELEMENT_SET_NO = 999
REV_AT_EPOCH   = 31554
BSTAR          = .57002817E-3
MEAN_MOTION_DOT = .20006E-3
MEAN_MOTION_DDOT = 0

CCSDS_OMM_VERS = 2.0
CREATION_DATE  = 
ORIGINATOR     = 

OBJECT_NAME    = COSMOS 1536
OBJECT_ID      = 1984-013A
CENTER_NAME    = EARTH
REF_FRAME      = TEME
TIME_SYSTEM    = UTC
MEAN_ELEMENT_THEORY = SGP/SGP4

EPOCH          = 2025-12-04T15:45:09.174816
MEAN_MOTION    = 15.22381009
ECCENTRICITY   = .00131716
INCLINATION    = 82.5456
RA_OF_ASC_NODE = 202.1794
ARG_OF_PERICENTER = 257.3681
MEAN_ANOMALY   = 102.6083

EPHEMERIS_TYPE = 0
CLASSIFICATION_TYPE = U
NORAD_CAT_ID   = 14699
ELEMENT_SET_NO = 999
REV_AT_EPOCH   = 25815
BSTAR          = .44259137E-3
MEAN_MOTION_DOT = .10275E-3
MEAN_MOTION_DDOT = 0

CCSDS_OMM_VERS = 2.0
CREATION_DATE  = 
ORIGINATOR     = 

OBJECT_NAME    = SL-14 R/B
OBJECT_ID      = 1984-027B
CENTER_NAME    = EARTH
REF_FRAME      = TEME
TIME_SYSTEM    = UTC
MEAN_ELEMENT_THEORY = SGP/SGP4

EPOCH          = 2025-12-04T11:23:10.769280
MEAN_MOTION    = 14.85860893
ECCENTRICITY   = .00164922
INCLINATION    = 82.5408
RA_OF_ASC_NODE = 334.3082
ARG_OF_PERICENTER = 290.8442
MEAN_ANOMALY   = 69.1008

EPHEMERIS_TYPE = 0
CLASSIFICATION_TYPE = U
NORAD_CAT_ID   = 14820
ELEMENT_SET_NO = 999
REV_AT_EPOCH   = 23349
BSTAR          = .11346762E-3
MEAN_MOTION_DOT = .1014E-4
MEAN_MOTION_DDOT = 0

CCSDS_OMM_VERS = 2.0
CREATION_DATE  = 
ORIGINATOR     = 

OBJECT_NAME    = SL-8 R/B
OBJECT_ID      = 1985-006B
CENTER_NAME    = EARTH
REF_FRAME      = TEME
TIME_SYSTEM    = UTC
MEAN_ELEMENT_THEORY = SGP/SGP4

EPOCH          = 2025-12-04T14:49:43.105728
MEAN_MOTION    = 14.37713960
ECCENTRICITY   = .00183371
INCLINATION    = 74.0465
RA_OF_ASC_NODE = 76.0771
ARG_OF_PERICENTER = 10.3105
MEAN_ANOMALY   = 90.5858

EPHEMERIS_TYPE = 0
CLASSIFICATION_TYPE = U
NORAD_CAT_ID   = 15483
ELEMENT_SET_NO = 999
REV_AT_EPOCH   = 14036
BSTAR          = .19024133E-3
MEAN_MOTION_DOT = .547E-5
MEAN_MOTION_DDOT = 0

CCSDS_OMM_VERS = 2.0
CREATION_DATE  = 
ORIGINATOR     = 

OBJECT_NAME    = SL-12 R/B(2)
OBJECT_ID      = 1985-042D
CENTER_NAME    = EARTH
REF_FRAME      = TEME
TIME_SYSTEM    = UTC
MEAN_ELEMENT_THEORY = SGP/SGP4

EPOCH          = 2025-12-04T14:34:45.828768
MEAN_MOTION    = 14.21947964
ECCENTRICITY   = .0037687
INCLINATION    = 71.1082
RA_OF_ASC_NODE = 288.6000
ARG_OF_PERICENTER = 273.3821
MEAN_ANOMALY   = 259.5244

EPHEMERIS_TYPE = 0
CLASSIFICATION_TYPE = U
NORAD_CAT_ID   = 15772
ELEMENT_SET_NO = 999
REV_AT_EPOCH   = 10087
BSTAR          = .10512105E-3
MEAN_MOTION_DOT = .186E-5
MEAN_MOTION_DDOT = 0

CCSDS_OMM_VERS = 2.0
CREATION_DATE  = 
ORIGINATOR     = 

OBJECT_NAME    = SL-14 R/B
OBJECT_ID      = 1985-069B
CENTER_NAME    = EARTH
REF_FRAME      = TEME
TIME_SYSTEM    = UTC
MEAN_ELEMENT_THEORY = SGP/SGP4

EPOCH          = 2025-12-04T14:56:51.272160
MEAN_MOTION    = 14.86309161
ECCENTRICITY   = .0019647
INCLINATION    = 82.5260
RA_OF_ASC_NODE = 114.3334
ARG_OF_PERICENTER = 143.9015
MEAN_ANOMALY   = 216.3533

EPHEMERIS_TYPE = 0
CLASSIFICATION_TYPE = U
NORAD_CAT_ID   = 15945
ELEMENT_SET_NO = 999
REV_AT_EPOCH   = 15871
BSTAR          = .1246267E-3
MEAN_MOTION_DOT = .1125E-4
MEAN_MOTION_DDOT = 0

CCSDS_OMM_VERS = 2.0
CREATION_DATE  = 
ORIGINATOR     = 

OBJECT_NAME    = SL-16 R/B
OBJECT_ID      = 1985-097B
CENTER_NAME    = EARTH
REF_FRAME      = TEME
TIME_SYSTEM    = UTC
MEAN_ELEMENT_THEORY = SGP/SGP4

EPOCH          = 2025-12-04T10:56:55.088160
MEAN_MOTION    = 14.16581780
ECCENTRICITY   = .00061736
INCLINATION    = 71.0032
RA_OF_ASC_NODE = 341.0432
ARG_OF_PERICENTER = 23.9176
MEAN_ANOMALY   = 83.5223

EPHEMERIS_TYPE = 0
CLASSIFICATION_TYPE = U
NORAD_CAT_ID   = 16182
ELEMENT_SET_NO = 999
REV_AT_EPOCH   = 7374
BSTAR          = -.31923031E-4
MEAN_MOTION_DOT = -.112E-5
MEAN_MOTION_DDOT = 0

CCSDS_OMM_VERS = 2.0
CREATION_DATE  = 
ORIGINATOR     = 

OBJECT_NAME    = SL-14 R/B
OBJECT_ID      = 1986-006B
CENTER_NAME    = EARTH
REF_FRAME      = TEME
TIME_SYSTEM    = UTC
MEAN_ELEMENT_THEORY = SGP/SGP4

EPOCH          = 2025-12-04T11:43:25.517856
MEAN_MOTION    = 14.86655323
ECCENTRICITY   = .00755632
INCLINATION    = 82.5266
RA_OF_ASC_NODE = 349.3158
ARG_OF_PERICENTER = 227.5082
MEAN_ANOMALY   = 131.9735

EPHEMERIS_TYPE = 0
CLASSIFICATION_TYPE = U
NORAD_CAT_ID   = 16496
ELEMENT_SET_NO = 999
REV_AT_EPOCH   = 13506
BSTAR          = .1371369E-3
MEAN_MOTION_DOT = .1308E-4
MEAN_MOTION_DDOT = 0

CCSDS_OMM_VERS = 2.0
CREATION_DATE  = 
ORIGINATOR     = 

OBJECT_NAME    = COSMOS 1743
OBJECT_ID      = 1986-034A
CENTER_NAME    = EARTH
REF_FRAME      = TEME
TIME_SYSTEM    = UTC
MEAN_ELEMENT_THEORY = SGP/SGP4

EPOCH          = 2025-12-04T14:15:33.046272
MEAN_MOTION    = 15.51524764
ECCENTRICITY   = .00048554
INCLINATION    = 82.5342
RA_OF_ASC_NODE = 173.0483
ARG_OF_PERICENTER = 289.1867
MEAN_ANOMALY   = 70.8859

EPHEMERIS_TYPE = 0
CLASSIFICATION_TYPE = U
NORAD_CAT_ID   = 16719
ELEMENT_SET_NO = 999
REV_AT_EPOCH   = 16547
BSTAR          = .80403709E-3
MEAN_MOTION_DOT = .478E-3
MEAN_MOTION_DDOT = 0

